{"type": "FeatureCollection", "features": [ {"type": "Feature", "properties": {"norad_id": 34874, "name": "COSMOS 2251 DEB", "group": "cosmos-2251-debris", "lat": 53.304683303315045, "lon": 108.14906023745637, "alt_km": 745.0430209762517, "timestamp": "2025-12-06T07:31:40.631122+00:00", "meta": {"OBJECT_NAME": "COSMOS 2251 DEB", "OBJECT_ID": "1993-036ACM", "EPOCH": "2025-12-04T13:32:54.756096", "MEAN_MOTION": 14.36242809, "ECCENTRICITY": 0.0051431, "INCLINATION": 74.0394, "RA_OF_ASC_NODE": 88.7771, "ARG_OF_PERICENTER": 116.6464, "MEAN_ANOMALY": 260.0885, "EPHEMERIS_TYPE": 0, "CLASSIFICATION_TYPE": "U", "NORAD_CAT_ID": 34874, "ELEMENT_SET_NO": 999, "REV_AT_EPOCH": 86927, "BSTAR": 0.0022032, "MEAN_MOTION_DOT": 6.511e-05, "MEAN_MOTION_DDOT": 0}, "tle": {"line1": "1 34874U 93036ACM 25338.56452264  .00006511  00000+0  22032-2 0  9995", "line2": "2 34874  74.0394  88.7771 0051431 116.6464 260.0885 14.36242809869275"}}, "geometry": {"type": "Point", "coordinates": [108.14906023745637, 53.304683303315045]}}, {"type": "Feature", "properties": {"norad_id": 34875, "name": "COSMOS 2251 DEB", "group": "cosmos-2251-debris", "lat": 1.9076119838693515, "lon": -10.290959545623096, "alt_km": 736.6122763298026, "timestamp": "2025-12-06T07:31:40.631132+00:00", "meta": {"OBJECT_NAME": "COSMOS 2251 DEB", "OBJECT_ID": "1993-036ACN", "EPOCH": "2025-12-04T07:27:02.046240", "MEAN_MOTION": 14.48882371, "ECCENTRICITY": 0.0015966, "INCLINATION": 74.0432, "RA_OF_ASC_NODE": 174.0068, "ARG_OF_PERICENTER": 298.2224, "MEAN_ANOMALY": 235.2859, "EPHEMERIS_TYPE": 0, "CLASSIFICATION_TYPE": "U", "NORAD_CAT_ID": 34875, "ELEMENT_SET_NO": 999, "REV_AT_EPOCH": 87633, "BSTAR": 0.00072808, "MEAN_MOTION_DOT": 2.732e-05, "MEAN_MOTION_DDOT": 0}, "tle": {"line1": "1 34875U 93036ACN 25338.31044035  .00002732  00000+0  72808-3 0  9990", "line2": "2 34875  74.0432 174.0068 0015966 298.2224 235.2859 14.48882371876338"}}, "geometry": {"type": "Point", "coordinates": [-10.290959545623096, 1.9076119838693515]}}, {"type": "Feature", "properties": {"norad_id": 34878, "name": "COSMOS 2251 DEB", "group": "cosmos-2251-debris", "lat": -27.168902749934933, "lon": -113.99507797474665, "alt_km": 1413.7500773994943, "timestamp": "2025-12-06T07:31:40.631144+00:00", "meta": {"OBJECT_NAME": "COSMOS 2251 DEB", "OBJECT_ID": "1993-036ACR", "EPOCH": "2025-12-04T13:43:42.679200", "MEAN_MOTION": 13.44176987, "ECCENTRICITY": 0.0435275, "INCLINATION": 73.9644, "RA_OF_ASC_NODE": 60.2789, "ARG_OF_PERICENTER": 45.4056, "MEAN_ANOMALY": 16.8273, "EPHEMERIS_TYPE": 0, "CLASSIFICATION_TYPE": "U", "NORAD_CAT_ID": 34878, "ELEMENT_SET_NO": 999, "REV_AT_EPOCH": 81163, "BSTAR": 0.00074707, "MEAN_MOTION_DOT": 7.47e-06, "MEAN_MOTION_DDOT": 0}, "tle": {"line1": "1 34878U 93036ACR 25338.57202175  .00000747  00000+0  74707-3 0  9996", "line2": "2 34878  73.9644  60.2789 0435275  45.4056  16.8273 13.44176987811633"}}, "geometry": {"type": "Point", "coordinates": [-113.99507797474665, -27.168902749934933]}}, {"type": "Feature", "properties": {"norad_id": 34882, "name": "COSMOS 2251 DEB", "group": "cosmos-2251-debris", "lat": -8.001703747930414, "lon": 60.18190942973132, "alt_km": 749.9639123705292, "timestamp": "2025-12-06T07:31:40.631154+00:00", "meta": {"OBJECT_NAME": "COSMOS 2251 DEB", "OBJECT_ID": "1993-036ACV", "EPOCH": "2025-12-04T16:53:13.957728", "MEAN_MOTION": 14.61571814, "ECCENTRICITY": 0.00824762, "INCLINATION": 74.0468, "RA_OF_ASC_NODE": 240.9544, "ARG_OF_PERICENTER": 9.9257, "MEAN_ANOMALY": 350.3513, "EPHEMERIS_TYPE": 0, "CLASSIFICATION_TYPE": "U", "NORAD_CAT_ID": 34882, "ELEMENT_SET_NO": 999, "REV_AT_EPOCH": 88407, "BSTAR": 0.0003857555, "MEAN_MOTION_DOT": 1.979e-05, "MEAN_MOTION_DDOT": 0}, "tle": {"line1": "1 34882U 93036ACV 25338.70363377  .00001979  00000+0  38576-3 0  9990", "line2": "2 34882  74.0468 240.9544 0082476   9.9257 350.3513 14.61571814884078"}}, "geometry": {"type": "Point", "coordinates": [60.18190942973132, -8.001703747930414]}}, {"type": "Feature", "properties": {"norad_id": 34883, "name": "COSMOS 2251 DEB", "group": "cosmos-2251-debris", "lat": 62.592680372845166, "lon": -138.40632993019904, "alt_km": 772.6633895452978, "timestamp": "2025-12-06T07:31:40.631164+00:00", "meta": {"OBJECT_NAME": "COSMOS 2251 DEB", "OBJECT_ID": "1993-036ACW", "EPOCH": "2025-12-05T06:11:03.490656", "MEAN_MOTION": 14.51071129, "ECCENTRICITY": 0.00951663, "INCLINATION": 74.1998, "RA_OF_ASC_NODE": 76.6598, "ARG_OF_PERICENTER": 263.1025, "MEAN_ANOMALY": 95.9304, "EPHEMERIS_TYPE": 0, "CLASSIFICATION_TYPE": "U", "NORAD_CAT_ID": 34883, "ELEMENT_SET_NO": 999, "REV_AT_EPOCH": 86331, "BSTAR": 0.0087448249, "MEAN_MOTION_DOT": 0.00036899, "MEAN_MOTION_DDOT": 0}, "tle": {"line1": "1 34883U 93036ACW 25339.25767929  .00036899  00000+0  87448-2 0  9993", "line2": "2 34883  74.1998  76.6598 0095166 263.1025  95.9304 14.51071129863315"}}, "geometry": {"type": "Point", "coordinates": [-138.40632993019904, 62.592680372845166]}}, {"type": "Feature", "properties": {"norad_id": 34884, "name": "COSMOS 2251 DEB", "group": "cosmos-2251-debris", "lat": -53.7958342489575, "lon": -87.33756052595871, "alt_km": 606.5651859463615, "timestamp": "2025-12-06T07:31:40.631174+00:00", "meta": {"OBJECT_NAME": "COSMOS 2251 DEB", "OBJECT_ID": "1993-036ACX", "EPOCH": "2025-12-05T06:23:41.087328", "MEAN_MOTION": 14.89491644, "ECCENTRICITY": 0.00026656, "INCLINATION": 74.0183, "RA_OF_ASC_NODE": 71.7084, "ARG_OF_PERICENTER": 127.3912, "MEAN_ANOMALY": 256.4126, "EPHEMERIS_TYPE": 0, "CLASSIFICATION_TYPE": "U", "NORAD_CAT_ID": 34884, "ELEMENT_SET_NO": 999, "REV_AT_EPOCH": 87694, "BSTAR": 0.0049922415, "MEAN_MOTION_DOT": 0.00047851, "MEAN_MOTION_DDOT": 0}, "tle": {"line1": "1 34884U 93036ACX 25339.26644777  .00047851  00000+0  49922-2 0  9995", "line2": "2 34884  74.0183  71.7084 0002665 127.3912 256.4126 14.89491644876943"}}, "geometry": {"type": "Point", "coordinates": [-87.33756052595871, -53.7958342489575]}}, {"type": "Feature", "properties": {"norad_id": 34885, "name": "COSMOS 2251 DEB", "group": "cosmos-2251-debris", "lat": -65.23377338385542, "lon": 156.75639567132853, "alt_km": 716.984239523159, "timestamp": "2025-12-06T07:31:40.631184+00:00", "meta": {"OBJECT_NAME": "COSMOS 2251 DEB", "OBJECT_ID": "1993-036ACY", "EPOCH": "2025-12-05T00:57:51.941664", "MEAN_MOTION": 14.5144336, "ECCENTRICITY": 0.00153554, "INCLINATION": 74.0311, "RA_OF_ASC_NODE": 197.5181, "ARG_OF_PERICENTER": 283.3049, "MEAN_ANOMALY": 194.3826, "EPHEMERIS_TYPE": 0, "CLASSIFICATION_TYPE": "U", "NORAD_CAT_ID": 34885, "ELEMENT_SET_NO": 999, "REV_AT_EPOCH": 87367, "BSTAR": 0.0014152953, "MEAN_MOTION_DOT": 5.636e-05, "MEAN_MOTION_DDOT": 0}, "tle": {"line1": "1 34885U 93036ACY 25339.04018451  .00005636  00000+0  14153-2 0  9999", "line2": "2 34885  74.0311 197.5181 0015355 283.3049 194.3826 14.51443360873671"}}, "geometry": {"type": "Point", "coordinates": [156.75639567132853, -65.23377338385542]}}, {"type": "Feature", "properties": {"norad_id": 34886, "name": "COSMOS 2251 DEB", "group": "cosmos-2251-debris", "lat": 8.143093064622406, "lon": 12.551881148606181, "alt_km": 474.03142062254574, "timestamp": "2025-12-06T07:31:40.631194+00:00", "meta": {"OBJECT_NAME": "COSMOS 2251 DEB", "OBJECT_ID": "1993-036ACZ", "EPOCH": "2025-12-02T21:33:25.254144", "MEAN_MOTION": 15.36781254, "ECCENTRICITY": 0.00310818, "INCLINATION": 73.9522, "RA_OF_ASC_NODE": 202.2947, "ARG_OF_PERICENTER": 28.5971, "MEAN_ANOMALY": 331.6931, "EPHEMERIS_TYPE": 0, "CLASSIFICATION_TYPE": "U", "NORAD_CAT_ID": 34886, "ELEMENT_SET_NO": 999, "REV_AT_EPOCH": 62847, "BSTAR": 0.0022652604, "MEAN_MOTION_DOT": 0.00083623, "MEAN_MOTION_DDOT": 0}, "tle": {"line1": "1 34886U 93036ACZ 25336.89820896  .00083623  00000+0  22653-2 0  9990", "line2": "2 34886  73.9522 202.2947 0031081  28.5971 331.6931 15.36781254628475"}}, "geometry": {"type": "Point", "coordinates": [12.551881148606181, 8.143093064622406]}}, {"type": "Feature", "properties": {"norad_id": 34907, "name": "COSMOS 2251 DEB", "group": "cosmos-2251-debris", "lat": 24.05195285560997, "lon": 69.75641490673232, "alt_km": 441.4552569291782, "timestamp": "2025-12-06T07:31:40.631204+00:00", "meta": {"OBJECT_NAME": "COSMOS 2251 DEB", "OBJECT_ID": "1993-036ADC", "EPOCH": "2025-12-03T07:33:59.716800", "MEAN_MOTION": 15.36069662, "ECCENTRICITY": 0.00173135, "INCLINATION": 73.9746, "RA_OF_ASC_NODE": 68.8584, "ARG_OF_PERICENTER": 354.075, "MEAN_ANOMALY": 6.0248, "EPHEMERIS_TYPE": 0, "CLASSIFICATION_TYPE": "U", "NORAD_CAT_ID": 34907, "ELEMENT_SET_NO": 999, "REV_AT_EPOCH": 87828, "BSTAR": 0.0098878558, "MEAN_MOTION_DOT": 0.00366153, "MEAN_MOTION_DDOT": 0}, "tle": {"line1": "1 34907U 93036ADC 25337.31527450  .00366153  00000+0  98879-2 0  9997", "line2": "2 34907  73.9746  68.8584 0017313 354.0750   6.0248 15.36069662878286"}}, "geometry": {"type": "Point", "coordinates": [69.75641490673232, 24.05195285560997]}}, {"type": "Feature", "properties": {"norad_id": 34908, "name": "COSMOS 2251 DEB", "group": "cosmos-2251-debris", "lat": -42.10843431296843, "lon": 20.495392992587572, "alt_km": 777.3529510683275, "timestamp": "2025-12-06T07:31:40.631214+00:00", "meta": {"OBJECT_NAME": "COSMOS 2251 DEB", "OBJECT_ID": "1993-036ADD", "EPOCH": "2025-12-03T22:05:15.258336", "MEAN_MOTION": 14.37358139, "ECCENTRICITY": 0.003985, "INCLINATION": 74.0588, "RA_OF_ASC_NODE": 39.8623, "ARG_OF_PERICENTER": 58.9751, "MEAN_ANOMALY": 117.9274, "EPHEMERIS_TYPE": 0, "CLASSIFICATION_TYPE": "U", "NORAD_CAT_ID": 34908, "ELEMENT_SET_NO": 999, "REV_AT_EPOCH": 87152, "BSTAR": 0.00089543, "MEAN_MOTION_DOT": 2.673e-05, "MEAN_MOTION_DDOT": 0}, "tle": {"line1": "1 34908U 93036ADD 25337.92031549  .00002673  00000+0  89543-3 0  9997", "line2": "2 34908  74.0588  39.8623 0039850  58.9751 117.9274 14.37358139871527"}}, "geometry": {"type": "Point", "coordinates": [20.495392992587572, -42.10843431296843]}}]}